<?xml version="1.0" encoding="UTF-8"?>
<ndm xmlns:xsi="http://www.w3.org/2001/XMLSchema-instance" xsi:noNamespaceSchemaLocation="https://sanaregistry.org/r/ndmxml_unqualified/ndmxml-2.0.0-master-2.0.xsd">
<omm id="CCSDS_OMM_VERS" version="2.0">
<header><CREATION_DATE/><ORIGINATOR/></header><body><segment><metadata><OBJECT_NAME>ORBCOMM FM05</OBJECT_NAME><OBJECT_ID>1997-084F</OBJECT_ID><CENTER_NAME>EARTH</CENTER_NAME><REF_FRAME>TEME</REF_FRAME><TIME_SYSTEM>UTC</TIME_SYSTEM><MEAN_ELEMENT_THEORY>SGP4</MEAN_ELEMENT_THEORY></metadata><data><meanElements><EPOCH>2025-03-20T08:29:55.426272</EPOCH><MEAN_MOTION>14.45453440</MEAN_MOTION><ECCENTRICITY>.0000506</ECCENTRICITY><INCLINATION>45.0138</INCLINATION><RA_OF_ASC_NODE>74.4539</RA_OF_ASC_NODE><ARG_OF_PERICENTER>256.0896</ARG_OF_PERICENTER><MEAN_ANOMALY>103.9899</MEAN_ANOMALY></meanElements><tleParameters><EPHEMERIS_TYPE>0</EPHEMERIS_TYPE><CLASSIFICATION_TYPE>U</CLASSIFICATION_TYPE><NORAD_CAT_ID>25117</NORAD_CAT_ID><ELEMENT_SET_NO>999</ELEMENT_SET_NO><REV_AT_EPOCH>42775</REV_AT_EPOCH><BSTAR>.18447E-2</BSTAR><MEAN_MOTION_DOT>.6421E-4</MEAN_MOTION_DOT><MEAN_MOTION_DDOT>0</MEAN_MOTION_DDOT></tleParameters></data></segment></body></omm>
<omm id="CCSDS_OMM_VERS" version="2.0">
<header><CREATION_DATE/><ORIGINATOR/></header><body><segment><metadata><OBJECT_NAME>ORBCOMM FM06</OBJECT_NAME><OBJECT_ID>1997-084G</OBJECT_ID><CENTER_NAME>EARTH</CENTER_NAME><REF_FRAME>TEME</REF_FRAME><TIME_SYSTEM>UTC</TIME_SYSTEM><MEAN_ELEMENT_THEORY>SGP4</MEAN_ELEMENT_THEORY></metadata><data><meanElements><EPOCH>2025-03-20T09:10:04.797408</EPOCH><MEAN_MOTION>14.45606437</MEAN_MOTION><ECCENTRICITY>.0001413</ECCENTRICITY><INCLINATION>45.0131</INCLINATION><RA_OF_ASC_NODE>74.1569</RA_OF_ASC_NODE><ARG_OF_PERICENTER>287.5893</ARG_OF_PERICENTER><MEAN_ANOMALY>216.2724</MEAN_ANOMALY></meanElements><tleParameters><EPHEMERIS_TYPE>0</EPHEMERIS_TYPE><CLASSIFICATION_TYPE>U</CLASSIFICATION_TYPE><NORAD_CAT_ID>25118</NORAD_CAT_ID><ELEMENT_SET_NO>999</ELEMENT_SET_NO><REV_AT_EPOCH>42867</REV_AT_EPOCH><BSTAR>.16732E-2</BSTAR><MEAN_MOTION_DOT>.5829E-4</MEAN_MOTION_DOT><MEAN_MOTION_DDOT>0</MEAN_MOTION_DDOT></tleParameters></data></segment></body></omm>
<omm id="CCSDS_OMM_VERS" version="2.0">
<header><CREATION_DATE/><ORIGINATOR/></header><body><segment><metadata><OBJECT_NAME>ORBCOMM FM07</OBJECT_NAME><OBJECT_ID>1997-084H</OBJECT_ID><CENTER_NAME>EARTH</CENTER_NAME><REF_FRAME>TEME</REF_FRAME><TIME_SYSTEM>UTC</TIME_SYSTEM><MEAN_ELEMENT_THEORY>SGP4</MEAN_ELEMENT_THEORY></metadata><data><meanElements><EPOCH>2025-03-20T08:48:19.241568</EPOCH><MEAN_MOTION>14.45566419</MEAN_MOTION><ECCENTRICITY>.0000412</ECCENTRICITY><INCLINATION>45.0127</INCLINATION><RA_OF_ASC_NODE>74.9911</RA_OF_ASC_NODE><ARG_OF_PERICENTER>130.2602</ARG_OF_PERICENTER><MEAN_ANOMALY>229.8286</MEAN_ANOMALY></meanElements><tleParameters><EPHEMERIS_TYPE>0</EPHEMERIS_TYPE><CLASSIFICATION_TYPE>U</CLASSIFICATION_TYPE><NORAD_CAT_ID>25119</NORAD_CAT_ID><ELEMENT_SET_NO>999</ELEMENT_SET_NO><REV_AT_EPOCH>42866</REV_AT_EPOCH><BSTAR>.15661E-2</BSTAR><MEAN_MOTION_DOT>.5442E-4</MEAN_MOTION_DOT><MEAN_MOTION_DDOT>0</MEAN_MOTION_DDOT></tleParameters></data></segment></body></omm>
<omm id="CCSDS_OMM_VERS" version="2.0">
<header><CREATION_DATE/><ORIGINATOR/></header><body><segment><metadata><OBJECT_NAME>ORBCOMM FM03</OBJECT_NAME><OBJECT_ID>1998-007B</OBJECT_ID><CENTER_NAME>EARTH</CENTER_NAME><REF_FRAME>TEME</REF_FRAME><TIME_SYSTEM>UTC</TIME_SYSTEM><MEAN_ELEMENT_THEORY>SGP4</MEAN_ELEMENT_THEORY></metadata><data><meanElements><EPOCH>2025-03-20T13:18:21.204576</EPOCH><MEAN_MOTION>14.34164520</MEAN_MOTION><ECCENTRICITY>.0044465</ECCENTRICITY><INCLINATION>107.9679</INCLINATION><RA_OF_ASC_NODE>313.5733</RA_OF_ASC_NODE><ARG_OF_PERICENTER>42.0468</ARG_OF_PERICENTER><MEAN_ANOMALY>318.4071</MEAN_ANOMALY></meanElements><tleParameters><EPHEMERIS_TYPE>0</EPHEMERIS_TYPE><CLASSIFICATION_TYPE>U</CLASSIFICATION_TYPE><NORAD_CAT_ID>25158</NORAD_CAT_ID><ELEMENT_SET_NO>999</ELEMENT_SET_NO><REV_AT_EPOCH>41133</REV_AT_EPOCH><BSTAR>.11666E-2</BSTAR><MEAN_MOTION_DOT>.318E-4</MEAN_MOTION_DOT><MEAN_MOTION_DDOT>0</MEAN_MOTION_DDOT></tleParameters></data></segment></body></omm>
<omm id="CCSDS_OMM_VERS" version="2.0">
<header><CREATION_DATE/><ORIGINATOR/></header><body><segment><metadata><OBJECT_NAME>ORBCOMM FM04</OBJECT_NAME><OBJECT_ID>1998-007C</OBJECT_ID><CENTER_NAME>EARTH</CENTER_NAME><REF_FRAME>TEME</REF_FRAME><TIME_SYSTEM>UTC</TIME_SYSTEM><MEAN_ELEMENT_THEORY>SGP4</MEAN_ELEMENT_THEORY></metadata><data><meanElements><EPOCH>2025-03-20T13:18:04.028256</EPOCH><MEAN_MOTION>14.34423626</MEAN_MOTION><ECCENTRICITY>.0040338</ECCENTRICITY><INCLINATION>107.9661</INCLINATION><RA_OF_ASC_NODE>316.7339</RA_OF_ASC_NODE><ARG_OF_PERICENTER>39.1457</ARG_OF_PERICENTER><MEAN_ANOMALY>321.2590</MEAN_ANOMALY></meanElements><tleParameters><EPHEMERIS_TYPE>0</EPHEMERIS_TYPE><CLASSIFICATION_TYPE>U</CLASSIFICATION_TYPE><NORAD_CAT_ID>25159</NORAD_CAT_ID><ELEMENT_SET_NO>999</ELEMENT_SET_NO><REV_AT_EPOCH>41151</REV_AT_EPOCH><BSTAR>.10658E-2</BSTAR><MEAN_MOTION_DOT>.2903E-4</MEAN_MOTION_DOT><MEAN_MOTION_DDOT>0</MEAN_MOTION_DDOT></tleParameters></data></segment></body></omm>
<omm id="CCSDS_OMM_VERS" version="2.0">
<header><CREATION_DATE/><ORIGINATOR/></header><body><segment><metadata><OBJECT_NAME>ORBCOMM FM17</OBJECT_NAME><OBJECT_ID>1998-046A</OBJECT_ID><CENTER_NAME>EARTH</CENTER_NAME><REF_FRAME>TEME</REF_FRAME><TIME_SYSTEM>UTC</TIME_SYSTEM><MEAN_ELEMENT_THEORY>SGP4</MEAN_ELEMENT_THEORY></metadata><data><meanElements><EPOCH>2025-03-20T15:12:53.814816</EPOCH><MEAN_MOTION>14.34825125</MEAN_MOTION><ECCENTRICITY>.0002522</ECCENTRICITY><INCLINATION>44.9946</INCLINATION><RA_OF_ASC_NODE>315.4656</RA_OF_ASC_NODE><ARG_OF_PERICENTER>112.0112</ARG_OF_PERICENTER><MEAN_ANOMALY>248.1003</MEAN_ANOMALY></meanElements><tleParameters><EPHEMERIS_TYPE>0</EPHEMERIS_TYPE><CLASSIFICATION_TYPE>U</CLASSIFICATION_TYPE><NORAD_CAT_ID>25413</NORAD_CAT_ID><ELEMENT_SET_NO>999</ELEMENT_SET_NO><REV_AT_EPOCH>39045</REV_AT_EPOCH><BSTAR>.11479E-2</BSTAR><MEAN_MOTION_DOT>.3148E-4</MEAN_MOTION_DOT><MEAN_MOTION_DDOT>0</MEAN_MOTION_DDOT></tleParameters></data></segment></body></omm>
<omm id="CCSDS_OMM_VERS" version="2.0">
<header><CREATION_DATE/><ORIGINATOR/></header><body><segment><metadata><OBJECT_NAME>ORBCOMM FM19</OBJECT_NAME><OBJECT_ID>1998-046C</OBJECT_ID><CENTER_NAME>EARTH</CENTER_NAME><REF_FRAME>TEME</REF_FRAME><TIME_SYSTEM>UTC</TIME_SYSTEM><MEAN_ELEMENT_THEORY>SGP4</MEAN_ELEMENT_THEORY></metadata><data><meanElements><EPOCH>2025-03-20T12:55:10.210368</EPOCH><MEAN_MOTION>14.37974072</MEAN_MOTION><ECCENTRICITY>.000461</ECCENTRICITY><INCLINATION>44.9930</INCLINATION><RA_OF_ASC_NODE>237.5114</RA_OF_ASC_NODE><ARG_OF_PERICENTER>186.5907</ARG_OF_PERICENTER><MEAN_ANOMALY>250.8064</MEAN_ANOMALY></meanElements><tleParameters><EPHEMERIS_TYPE>0</EPHEMERIS_TYPE><CLASSIFICATION_TYPE>U</CLASSIFICATION_TYPE><NORAD_CAT_ID>25415</NORAD_CAT_ID><ELEMENT_SET_NO>999</ELEMENT_SET_NO><REV_AT_EPOCH>39144</REV_AT_EPOCH><BSTAR>.154E-2</BSTAR><MEAN_MOTION_DOT>.456E-4</MEAN_MOTION_DOT><MEAN_MOTION_DDOT>0</MEAN_MOTION_DDOT></tleParameters></data></segment></body></omm>

</ndm>
