ORBCOMM FM05            
1 25117U 97084F   25079.35411373  .00006421  00000+0  18447-2 0  9992
2 25117  45.0138  74.4539 0000506 256.0896 103.9899 14.45453440427756
ORBCOMM FM06            
1 25118U 97084G   25079.38199997  .00005829  00000+0  16732-2 0  9997
2 25118  45.0131  74.1569 0001413 287.5893 216.2724 14.45606437428677
ORBCOMM FM07            
1 25119U 97084H   25079.36688937  .00005442  00000+0  15661-2 0  9994
2 25119  45.0127  74.9911 0000412 130.2602 229.8286 14.45566419428669
ORBCOMM FM03            
1 25158U 98007B   25079.55441209  .00003180  00000+0  11666-2 0  9991
2 25158 107.9679 313.5733 0044465  42.0468 318.4071 14.34164520411475
ORBCOMM FM04            
1 25159U 98007C   25079.55421329  .00002903  00000+0  10658-2 0  9995
2 25159 107.9661 316.7339 0040338  39.1457 321.2590 14.34423626411512
ORBCOMM FM17            
1 25413U 98046A   25079.63395619  .00003148  00000+0  11479-2 0  9996
2 25413  44.9946 315.4656 0002522 112.0112 248.1003 14.34825125390456
ORBCOMM FM19            
1 25415U 98046C   25079.53831262  .00004560  00000+0  15400-2 0  9993
2 25415  44.9930 237.5114 0004610 186.5907 250.8064 14.37974072391448
